{
  "type": "FeatureCollection",
  "features": [
    {
      "type": "Feature",
      "properties": {
        "norad_id": 41948,
        "name": "CARTOSAT-2D",
        "group": "resource",
        "lat": -82.55123096163298,
        "lon": 145.5541372740764,
        "alt_km": 519.0372543974772,
        "timestamp": "2025-12-26T18:39:31.929815+00:00",
        "meta_object_name": "CARTOSAT-2D",
        "meta_object_id": "2017-008A",
        "meta_epoch": "2025-12-26T14:18:40.289760",
        "meta_mean_motion": 15.19205766,
        "meta_eccentricity": 0.00054084,
        "meta_inclination": 97.4366,
        "meta_ra_of_asc_node": 57.8816,
        "meta_arg_of_pericenter": 113.7312,
        "meta_mean_anomaly": 246.449,
        "meta_ephemeris_type": 0,
        "meta_classification_type": "U",
        "meta_norad_cat_id": 41948,
        "meta_element_set_no": 999,
        "meta_rev_at_epoch": 49137,
        "meta_bstar": 0.00033757319,
        "meta_mean_motion_dot": 7.042e-05,
        "meta_mean_motion_ddot": 0,
        "tle_line1": "1 41948U 17008A   25360.59629965  .00007042  00000+0  33757-3 0  9999",
        "tle_line2": "2 41948  97.4366  57.8816 0005408 113.7312 246.4490 15.19205766491378"
      },
      "geometry": {
        "type": "Point",
        "coordinates": [
          145.5541372740764,
          -82.55123096163298
        ]
      }
    },
    {
      "type": "Feature",
      "properties": {
        "norad_id": 42063,
        "name": "SENTINEL-2B",
        "group": "resource",
        "lat": 81.42179834072263,
        "lon": -18.568148836237174,
        "alt_km": 780.6925963864796,
        "timestamp": "2025-12-26T18:39:31.929826+00:00",
        "meta_object_name": "SENTINEL-2B",
        "meta_object_id": "2017-013A",
        "meta_epoch": "2025-12-26T14:52:55.757856",
        "meta_mean_motion": 14.30817062,
        "meta_eccentricity": 0.00011795,
        "meta_inclination": 98.5695,
        "meta_ra_of_asc_node": 72.8704,
        "meta_arg_of_pericenter": 88.4022,
        "meta_mean_anomaly": 271.7296,
        "meta_ephemeris_type": 0,
        "meta_classification_type": "U",
        "meta_norad_cat_id": 42063,
        "meta_element_set_no": 999,
        "meta_rev_at_epoch": 45996,
        "meta_bstar": 0.00015997086,
        "meta_mean_motion_dot": 3.76e-06,
        "meta_mean_motion_ddot": 0,
        "tle_line1": "1 42063U 17013A   25360.62008979  .00000376  00000+0  15997-3 0  9993",
        "tle_line2": "2 42063  98.5695  72.8704 0001179  88.4022 271.7296 14.30817062459968"
      },
      "geometry": {
        "type": "Point",
        "coordinates": [
          -18.568148836237174,
          81.42179834072263
        ]
      }
    },
    {
      "type": "Feature",
      "properties": {
        "norad_id": 42767,
        "name": "CARTOSAT-2E",
        "group": "resource",
        "lat": 0.2630993229811295,
        "lon": -121.78618436847604,
        "alt_km": 509.51671699165945,
        "timestamp": "2025-12-26T18:39:31.929836+00:00",
        "meta_object_name": "CARTOSAT-2E",
        "meta_object_id": "2017-036C",
        "meta_epoch": "2025-12-26T14:42:33.309792",
        "meta_mean_motion": 15.19215118,
        "meta_eccentricity": 0.00025937,
        "meta_inclination": 97.4533,
        "meta_ra_of_asc_node": 58.017,
        "meta_arg_of_pericenter": 167.0787,
        "meta_mean_anomaly": 193.0514,
        "meta_ephemeris_type": 0,
        "meta_classification_type": "U",
        "meta_norad_cat_id": 42767,
        "meta_element_set_no": 999,
        "meta_rev_at_epoch": 47194,
        "meta_bstar": 0.00039869189,
        "meta_mean_motion_dot": 8.33e-05,
        "meta_mean_motion_ddot": 0,
        "tle_line1": "1 42767U 17036C   25360.61288553  .00008330  00000+0  39869-3 0  9998",
        "tle_line2": "2 42767  97.4533  58.0170 0002593 167.0787 193.0514 15.19215118471947"
      },
      "geometry": {
        "type": "Point",
        "coordinates": [
          -121.78618436847604,
          0.2630993229811295
        ]
      }
    },
    {
      "type": "Feature",
      "properties": {
        "norad_id": 42920,
        "name": "FORMOSAT-5",
        "group": "resource",
        "lat": 21.649722726257654,
        "lon": 71.51427928979014,
        "alt_km": 727.283959040632,
        "timestamp": "2025-12-26T18:39:31.929846+00:00",
        "meta_object_name": "FORMOSAT-5",
        "meta_object_id": "2017-049A",
        "meta_epoch": "2025-12-26T15:14:51.581472",
        "meta_mean_motion": 14.50768591,
        "meta_eccentricity": 0.0009854,
        "meta_inclination": 98.2437,
        "meta_ra_of_asc_node": 74.674,
        "meta_arg_of_pericenter": 253.9058,
        "meta_mean_anomaly": 106.1052,
        "meta_ephemeris_type": 0,
        "meta_classification_type": "U",
        "meta_norad_cat_id": 42920,
        "meta_element_set_no": 999,
        "meta_rev_at_epoch": 44165,
        "meta_bstar": 7.8174286e-05,
        "meta_mean_motion_dot": 2.64e-06,
        "meta_mean_motion_ddot": 0,
        "tle_line1": "1 42920U 17049A   25360.63531923  .00000264  00000+0  78174-4 0  9998",
        "tle_line2": "2 42920  98.2437  74.6740 0009854 253.9058 106.1052 14.50768591441659"
      },
      "geometry": {
        "type": "Point",
        "coordinates": [
          71.51427928979014,
          21.649722726257654
        ]
      }
    },
    {
      "type": "Feature",
      "properties": {
        "norad_id": 42969,
        "name": "SENTINEL-5P",
        "group": "resource",
        "lat": -78.18612162505516,
        "lon": -13.123296194838478,
        "alt_km": 835.0499339183543,
        "timestamp": "2025-12-26T18:39:31.929856+00:00",
        "meta_object_name": "SENTINEL-5P",
        "meta_object_id": "2017-064A",
        "meta_epoch": "2025-12-26T13:58:12.206208",
        "meta_mean_motion": 14.19520906,
        "meta_eccentricity": 0.00010675,
        "meta_inclination": 98.7802,
        "meta_ra_of_asc_node": 299.0446,
        "meta_arg_of_pericenter": 91.0602,
        "meta_mean_anomaly": 269.0696,
        "meta_ephemeris_type": 0,
        "meta_classification_type": "U",
        "meta_norad_cat_id": 42969,
        "meta_element_set_no": 999,
        "meta_rev_at_epoch": 42507,
        "meta_bstar": 6.981866e-05,
        "meta_mean_motion_dot": 1.03e-06,
        "meta_mean_motion_ddot": 0,
        "tle_line1": "1 42969U 17064A   25360.58208572  .00000103  00000+0  69819-4 0  9991",
        "tle_line2": "2 42969  98.7802 299.0446 0001067  91.0602 269.0696 14.19520906425075"
      },
      "geometry": {
        "type": "Point",
        "coordinates": [
          -13.123296194838478,
          -78.18612162505516
        ]
      }
    },
    {
      "type": "Feature",
      "properties": {
        "norad_id": 42987,
        "name": "SKYSAT-C11",
        "group": "resource",
        "lat": 20.2101931373788,
        "lon": 135.87409712409516,
        "alt_km": 422.345858164058,
        "timestamp": "2025-12-26T18:39:31.929866+00:00",
        "meta_object_name": "SKYSAT-C11",
        "meta_object_id": "2017-068A",
        "meta_epoch": "2025-12-26T15:28:06.129696",
        "meta_mean_motion": 15.48052469,
        "meta_eccentricity": 0.00011424,
        "meta_inclination": 97.415,
        "meta_ra_of_asc_node": 138.4858,
        "meta_arg_of_pericenter": 94.6994,
        "meta_mean_anomaly": 265.4386,
        "meta_ephemeris_type": 0,
        "meta_classification_type": "U",
        "meta_norad_cat_id": 42987,
        "meta_element_set_no": 999,
        "meta_rev_at_epoch": 45646,
        "meta_bstar": 0.00044126098,
        "meta_mean_motion_dot": 0.00023044,
        "meta_mean_motion_ddot": 0,
        "tle_line1": "1 42987U 17068A   25360.64451539  .00023044  00000+0  44126-3 0  9997",
        "tle_line2": "2 42987  97.4150 138.4858 0001142  94.6994 265.4386 15.48052469456467"
      },
      "geometry": {
        "type": "Point",
        "coordinates": [
          135.87409712409516,
          20.2101931373788
        ]
      }
    },
    {
      "type": "Feature",
      "properties": {
        "norad_id": 42988,
        "name": "SKYSAT-C10",
        "group": "resource",
        "lat": 32.62196241022109,
        "lon": 126.88125318367045,
        "alt_km": 466.528888435776,
        "timestamp": "2025-12-26T18:39:31.929876+00:00",
        "meta_object_name": "SKYSAT-C10",
        "meta_object_id": "2017-068B",
        "meta_epoch": "2025-12-26T07:32:29.639616",
        "meta_mean_motion": 15.31865933,
        "meta_eccentricity": 0.00035329,
        "meta_inclination": 97.4259,
        "meta_ra_of_asc_node": 131.2058,
        "meta_arg_of_pericenter": 75.9386,
        "meta_mean_anomaly": 284.2248,
        "meta_ephemeris_type": 0,
        "meta_classification_type": "U",
        "meta_norad_cat_id": 42988,
        "meta_element_set_no": 999,
        "meta_rev_at_epoch": 45587,
        "meta_bstar": 0.00043148075,
        "meta_mean_motion_dot": 0.00013208,
        "meta_mean_motion_ddot": 0,
        "tle_line1": "1 42988U 17068B   25360.31423194  .00013208  00000+0  43148-3 0  9992",
        "tle_line2": "2 42988  97.4259 131.2058 0003532  75.9386 284.2248 15.31865933455873"
      },
      "geometry": {
        "type": "Point",
        "coordinates": [
          126.88125318367045,
          32.62196241022109
        ]
      }
    }
  ]
}